ORBCOMM FM20 [+]        
1 25416U 98046D   24052.08775058  .00001384  00000+0  53174-3 0  9996
2 25416  44.9950 300.1312 0001094 353.1578   6.9254 14.34908368335000
ORBCOMM FM16 [-]        
1 25417U 98046E   24052.16684095  .00001851  00000+0  68232-3 0  9996
2 25417  44.9943 296.0877 0004416  29.9652 330.1447 14.35774666335126
ORBCOMM FM15 [-]        
1 25418U 98046F   24052.03913708  .00001578  00000+0  59191-3 0  9999
2 25418  44.9974 300.5682 0003978  29.9985 330.1090 14.35517841335064
ORBCOMM FM14 [-]        
1 25419U 98046G   24051.81525337  .00001931  00000+0  71153-3 0  9997
2 25419  44.9966 300.8395 0002911  16.1064  94.3227 14.35657573334812
ORBCOMM FM13 [+]        
1 25420U 98046H   24052.08022171  .00001547  00000+0  58727-3 0  9992
2 25420  44.9978 304.0363 0005181  13.8698 346.2291 14.35010148335055
ORBCOMM FM21 [-]        
1 25475U 98053A   24051.95881650  .00001744  00000+0  65598-3 0  9993
2 25475  45.0097  28.8269 0002445 305.4857  54.5762 14.34981623328252
ORBCOMM FM22 [-]        
1 25476U 98053B   24052.10295100  .00002135  00000+0  78479-3 0  9998
2 25476  45.0094  25.7367 0004102 313.9036  46.1472 14.35441694328299
ORBCOMM FM23 [-]        
1 25477U 98053C   24051.91928900  .00001912  00000+0  71416-3 0  9994
2 25477  45.0098  31.4603 0003462 307.3637  52.6894 14.35002574328068
